start=new Date('2021-08-29T00:00:00.000Z').valueOf();
sats=[{"INCLINATION":"53.0531","SITE":"AFETR","TLE_LINE1":"1 46170U 20057BF  21240.91767356  .00386168  66086-4  13098-2 0  9990","PERIAPSIS":"298.688","OBJECT_TYPE":"PAYLOAD","REF_FRAME":"TEME","MEAN_ELEMENT_THEORY":"SGP4","OBJECT_ID":"2020-057BF","SEMIMAJOR_AXIS":"6682.277","COUNTRY_CODE":"US","RA_OF_ASC_NODE":"99.0898","GP_ID":"183638724","CLASSIFICATION_TYPE":"U","OBJECT_NAME":"STARLINK-1632","REV_AT_EPOCH":"5795","CENTER_NAME":"EARTH","DECAY_DATE":null,"TIME_SYSTEM":"UTC","APOAPSIS":"309.597","EPHEMERIS_TYPE":"0","EPOCH":"2021-08-28T22:01:26.995584","MEAN_MOTION":"15.89337056","ECCENTRICITY":"0.00081630","MEAN_MOTION_DDOT":"0.0000660860000","BSTAR":"0.00130980000000","NORAD_CAT_ID":"46170","ARG_OF_PERICENTER":"274.5077","LAUNCH_DATE":"2020-08-18","TLE_LINE2":"2 46170  53.0531  99.0898 0008163 274.5077  85.5015 15.89337056 57957","MEAN_ANOMALY":"85.5015","MEAN_MOTION_DOT":"0.00386168","ELEMENT_SET_NO":"999","FILE":"3104555","PERIOD":"90.604","RCS_SIZE":"LARGE"},{"MEAN_MOTION_DOT":"0.00001033","ELEMENT_SET_NO":"999","FILE":"3104555","RCS_SIZE":"LARGE","PERIOD":"95.592","TLE_LINE2":"2 46171  53.0538 162.6670 0001773  67.4120 292.7056 15.06408983 58278","MEAN_ANOMALY":"292.7056","NORAD_CAT_ID":"46171","ARG_OF_PERICENTER":"67.4120","LAUNCH_DATE":"2020-08-18","APOAPSIS":"548.414","EPHEMERIS_TYPE":"0","TIME_SYSTEM":"UTC","DECAY_DATE":null,"MEAN_MOTION":"15.06408983","EPOCH":"2021-08-28T11:28:56.025408","MEAN_MOTION_DDOT":"0.0000000000000","ECCENTRICITY":"0.00017730","BSTAR":"0.00008824900000","GP_ID":"183637976","CLASSIFICATION_TYPE":"U","CENTER_NAME":"EARTH","REV_AT_EPOCH":"5827","OBJECT_NAME":"STARLINK-1633","SEMIMAJOR_AXIS":"6925.321","COUNTRY_CODE":"US","RA_OF_ASC_NODE":"162.6670","REF_FRAME":"TEME","MEAN_ELEMENT_THEORY":"SGP4","OBJECT_ID":"2020-057BG","INCLINATION":"53.0538","PERIAPSIS":"545.958","SITE":"AFETR","TLE_LINE1":"1 46171U 20057BG  21240.47842622  .00001033  00000-0  88249-4 0  9999","OBJECT_TYPE":"PAYLOAD"},{"GP_ID":"183637727","CLASSIFICATION_TYPE":"U","REV_AT_EPOCH":"5827","OBJECT_NAME":"STARLINK-1635","CENTER_NAME":"EARTH","COUNTRY_CODE":"US","SEMIMAJOR_AXIS":"6925.340","RA_OF_ASC_NODE":"162.5973","REF_FRAME":"TEME","OBJECT_ID":"2020-057BH","MEAN_ELEMENT_THEORY":"SGP4","PERIAPSIS":"545.885","SITE":"AFETR","TLE_LINE1":"1 46172U 20057BH  21240.49317390  .00001397  00000-0  11268-3 0  9990","INCLINATION":"53.0569","OBJECT_TYPE":"PAYLOAD","ELEMENT_SET_NO":"999","MEAN_MOTION_DOT":"0.00001397","PERIOD":"95.592","RCS_SIZE":"LARGE","FILE":"3104555","TLE_LINE2":"2 46172  53.0569 162.5973 0001906  71.8108 288.3088 15.06402863 58278","MEAN_ANOMALY":"288.3088","NORAD_CAT_ID":"46172","LAUNCH_DATE":"2020-08-18","ARG_OF_PERICENTER":"71.8108","MEAN_MOTION":"15.06402863","EPOCH":"2021-08-28T11:50:10.224960","EPHEMERIS_TYPE":"0","APOAPSIS":"548.525","TIME_SYSTEM":"UTC","DECAY_DATE":null,"BSTAR":"0.00011268000000","ECCENTRICITY":"0.00019060","MEAN_MOTION_DDOT":"0.0000000000000"},{"ECCENTRICITY":"0.00017670","MEAN_MOTION_DDOT":"0.0000000000000","BSTAR":"0.00009345400000","DECAY_DATE":null,"EPHEMERIS_TYPE":"0","APOAPSIS":"548.422","TIME_SYSTEM":"UTC","EPOCH":"2021-08-28T12:56:31.106688","MEAN_MOTION":"15.06404988","ARG_OF_PERICENTER":"61.1996","LAUNCH_DATE":"2020-08-18","NORAD_CAT_ID":"46173","MEAN_ANOMALY":"298.9170","TLE_LINE2":"2 46173  53.0543 182.3932 0001767  61.1996 298.9170 15.06404988 56747","FILE":"3104555","PERIOD":"95.592","RCS_SIZE":"LARGE","MEAN_MOTION_DOT":"0.00001111","ELEMENT_SET_NO":"999","OBJECT_TYPE":"PAYLOAD","INCLINATION":"53.0543","TLE_LINE1":"1 46173U 20057BJ  21240.53924892  .00001111  00000-0  93454-4 0  9999","SITE":"AFETR","PERIAPSIS":"545.975","MEAN_ELEMENT_THEORY":"SGP4","OBJECT_ID":"2020-057BJ","REF_FRAME":"TEME","RA_OF_ASC_NODE":"182.3932","COUNTRY_CODE":"US","SEMIMAJOR_AXIS":"6925.333","REV_AT_EPOCH":"5674","OBJECT_NAME":"STARLINK-1640","CENTER_NAME":"EARTH","CLASSIFICATION_TYPE":"U","GP_ID":"183638475"},{"GP_ID":"183639224","CLASSIFICATION_TYPE":"U","REV_AT_EPOCH":"5679","OBJECT_NAME":"STARLINK-1641","CENTER_NAME":"EARTH","COUNTRY_CODE":"US","SEMIMAJOR_AXIS":"6925.337","RA_OF_ASC_NODE":"180.8612","REF_FRAME":"TEME","MEAN_ELEMENT_THEORY":"SGP4","OBJECT_ID":"2020-057BK","INCLINATION":"53.0546","SITE":"AFETR","TLE_LINE1":"1 46174U 20057BK  21240.87835740  .00000869  00000-0  77242-4 0  9996","PERIAPSIS":"546.050","OBJECT_TYPE":"PAYLOAD","MEAN_MOTION_DOT":"0.00000869","ELEMENT_SET_NO":"999","FILE":"3104555","PERIOD":"95.592","RCS_SIZE":"LARGE","TLE_LINE2":"2 46174  53.0546 180.8612 0001663  70.1945 289.9223 15.06403924 56791","MEAN_ANOMALY":"289.9223","NORAD_CAT_ID":"46174","ARG_OF_PERICENTER":"70.1945","LAUNCH_DATE":"2020-08-18","DECAY_DATE":null,"TIME_SYSTEM":"UTC","APOAPSIS":"548.353","EPHEMERIS_TYPE":"0","EPOCH":"2021-08-28T21:04:50.079360","MEAN_MOTION":"15.06403924","ECCENTRICITY":"0.00016630","MEAN_MOTION_DDOT":"0.0000000000000","BSTAR":"0.00007724200000"},{"BSTAR":"0.00017146000000","MEAN_MOTION_DDOT":"0.0000000000000","ECCENTRICITY":"0.00013410","MEAN_MOTION":"15.06406855","EPOCH":"2021-08-28T08:37:05.689632","APOAPSIS":"548.121","TIME_SYSTEM":"UTC","EPHEMERIS_TYPE":"0","DECAY_DATE":null,"LAUNCH_DATE":"2020-09-03","ARG_OF_PERICENTER":"45.0499","NORAD_CAT_ID":"46325","MEAN_ANOMALY":"315.0599","TLE_LINE2":"2 46325  53.0533 198.2034 0001341  45.0499 315.0599 15.06406855 56203","PERIOD":"95.592","RCS_SIZE":"LARGE","FILE":"3104340","ELEMENT_SET_NO":"999","MEAN_MOTION_DOT":"0.00002274","OBJECT_TYPE":"PAYLOAD","PERIAPSIS":"546.264","SITE":"AFETR","TLE_LINE1":"1 46325U 20062A   21240.35909363  .00002274  00000-0  17146-3 0  9994","INCLINATION":"53.0533","OBJECT_ID":"2020-062A","MEAN_ELEMENT_THEORY":"SGP4","REF_FRAME":"TEME","RA_OF_ASC_NODE":"198.2034","COUNTRY_CODE":"US","SEMIMAJOR_AXIS":"6925.328","CENTER_NAME":"EARTH","REV_AT_EPOCH":"5620","OBJECT_NAME":"STARLINK-1734","GP_ID":"183611136","CLASSIFICATION_TYPE":"U"},{"TLE_LINE2":"2 46326  53.0518 241.2341 0000895  51.8156 308.2913 15.06408315 55032","MEAN_ANOMALY":"308.2913","MEAN_MOTION_DOT":"0.00003434","ELEMENT_SET_NO":"999","FILE":"3104555","RCS_SIZE":"LARGE","PERIOD":"95.592","DECAY_DATE":null,"APOAPSIS":"547.808","EPHEMERIS_TYPE":"0","TIME_SYSTEM":"UTC","EPOCH":"2021-08-28T19:09:21.939840","MEAN_MOTION":"15.06408315","MEAN_MOTION_DDOT":"0.0000000000000","ECCENTRICITY":"0.00008950","BSTAR":"0.00024924000000","NORAD_CAT_ID":"46326","ARG_OF_PERICENTER":"51.8156","LAUNCH_DATE":"2020-09-03","SEMIMAJOR_AXIS":"6925.323","COUNTRY_CODE":"US","RA_OF_ASC_NODE":"241.2341","CLASSIFICATION_TYPE":"U","GP_ID":"183637489","REV_AT_EPOCH":"5503","OBJECT_NAME":"STARLINK-1654","CENTER_NAME":"EARTH","INCLINATION":"53.0518","TLE_LINE1":"1 46326U 20062B   21240.79817060  .00003434  00000-0  24924-3 0  9996","SITE":"AFETR","PERIAPSIS":"546.568","OBJECT_TYPE":"PAYLOAD","REF_FRAME":"TEME","MEAN_ELEMENT_THEORY":"SGP4","OBJECT_ID":"2020-062B"},{"REV_AT_EPOCH":"5501","CENTER_NAME":"EARTH","OBJECT_NAME":"STARLINK-1673","GP_ID":"183638239","CLASSIFICATION_TYPE":"U","RA_OF_ASC_NODE":"241.6267","COUNTRY_CODE":"US","SEMIMAJOR_AXIS":"6925.353","MEAN_ELEMENT_THEORY":"SGP4","OBJECT_ID":"2020-062C","REF_FRAME":"TEME","OBJECT_TYPE":"PAYLOAD","INCLINATION":"53.0539","PERIAPSIS":"546.833","SITE":"AFETR","TLE_LINE1":"1 46327U 20062C   21240.71066934  .00001687  00000-0  13208-3 0  9996","FILE":"3104555","PERIOD":"95.592","RCS_SIZE":"LARGE","MEAN_MOTION_DOT":"0.00001687","ELEMENT_SET_NO":"999","MEAN_ANOMALY":"330.1569","TLE_LINE2":"2 46327  53.0539 241.6267 0000556  29.9451 330.1569 15.06398690 55018","ARG_OF_PERICENTER":"29.9451","LAUNCH_DATE":"2020-09-03","NORAD_CAT_ID":"46327","ECCENTRICITY":"0.00005560","MEAN_MOTION_DDOT":"0.0000000000000","BSTAR":"0.00013208000000","TIME_SYSTEM":"UTC","APOAPSIS":"547.603","EPHEMERIS_TYPE":"0","DECAY_DATE":null,"MEAN_MOTION":"15.06398690","EPOCH":"2021-08-28T17:03:21.830976"},{"RA_OF_ASC_NODE":"221.4150","SEMIMAJOR_AXIS":"6925.324","COUNTRY_CODE":"US","REV_AT_EPOCH":"5530","CENTER_NAME":"EARTH","OBJECT_NAME":"STARLINK-1686","GP_ID":"183638987","CLASSIFICATION_TYPE":"U","OBJECT_TYPE":"PAYLOAD","PERIAPSIS":"546.311","SITE":"AFETR","TLE_LINE1":"1 46328U 20062D   21240.75671605  .00001092  00000-0  92190-4 0  9996","INCLINATION":"53.0536","OBJECT_ID":"2020-062D","MEAN_ELEMENT_THEORY":"SGP4","REF_FRAME":"TEME","MEAN_ANOMALY":"309.5981","TLE_LINE2":"2 46328  53.0536 221.4150 0001268  50.5120 309.5981 15.06408024 55300","PERIOD":"95.592","RCS_SIZE":"LARGE","FILE":"3104555","ELEMENT_SET_NO":"999","MEAN_MOTION_DOT":"0.00001092","BSTAR":"0.00009219000000","ECCENTRICITY":"0.00012680","MEAN_MOTION_DDOT":"0.0000000000000","MEAN_MOTION":"15.06408024","EPOCH":"2021-08-28T18:09:40.266720","EPHEMERIS_TYPE":"0","APOAPSIS":"548.067","TIME_SYSTEM":"UTC","DECAY_DATE":null,"LAUNCH_DATE":"2020-09-03","ARG_OF_PERICENTER":"50.5120","NORAD_CAT_ID":"46328"},{"MEAN_ELEMENT_THEORY":"SGP4","OBJECT_ID":"2020-062E","REF_FRAME":"TEME","OBJECT_TYPE":"PAYLOAD","INCLINATION":"53.0535","PERIAPSIS":"546.584","SITE":"AFETR","TLE_LINE1":"1 46329U 20062E   21240.65720134 -.00000611  00000-0 -22171-4 0  9998","CENTER_NAME":"EARTH","REV_AT_EPOCH":"5528","OBJECT_NAME":"STARLINK-1695","GP_ID":"183638737","CLASSIFICATION_TYPE":"U","RA_OF_ASC_NODE":"221.8561","SEMIMAJOR_AXIS":"6925.345","COUNTRY_CODE":"US","ARG_OF_PERICENTER":"31.5192","LAUNCH_DATE":"2020-09-03","NORAD_CAT_ID":"46329","ECCENTRICITY":"0.00009030","MEAN_MOTION_DDOT":"0.0000000000000","BSTAR":"-0.00002217100000","APOAPSIS":"547.835","TIME_SYSTEM":"UTC","EPHEMERIS_TYPE":"0","DECAY_DATE":null,"MEAN_MOTION":"15.06401285","EPOCH":"2021-08-28T15:46:22.195776","FILE":"3104555","PERIOD":"95.592","RCS_SIZE":"LARGE","MEAN_MOTION_DOT":"-0.00000611","ELEMENT_SET_NO":"999","MEAN_ANOMALY":"328.5851","TLE_LINE2":"2 46329  53.0535 221.8561 0000903  31.5192 328.5851 15.06401285 55289"}];
